CCSDS_OMM_VERS = 2.0
CREATION_DATE  = 
ORIGINATOR     = 

OBJECT_NAME    = COSMOS 1933
OBJECT_ID      = 1988-020A
CENTER_NAME    = EARTH
REF_FRAME      = TEME
TIME_SYSTEM    = UTC
MEAN_ELEMENT_THEORY = SGP/SGP4

EPOCH          = 2025-12-20T22:21:09.396864
MEAN_MOTION    = 15.17171989
ECCENTRICITY   = .0006221
INCLINATION    = 82.5136
RA_OF_ASC_NODE = 328.7840
ARG_OF_PERICENTER = 106.4671
MEAN_ANOMALY   = 253.7246

EPHEMERIS_TYPE = 0
CLASSIFICATION_TYPE = U
NORAD_CAT_ID   = 18958
ELEMENT_SET_NO = 999
REV_AT_EPOCH   = 3828
BSTAR          = .15796873E-3
MEAN_MOTION_DOT = .3167E-4
MEAN_MOTION_DDOT = 0

CCSDS_OMM_VERS = 2.0
CREATION_DATE  = 
ORIGINATOR     = 

OBJECT_NAME    = SL-3 R/B
OBJECT_ID      = 1988-032B
CENTER_NAME    = EARTH
REF_FRAME      = TEME
TIME_SYSTEM    = UTC
MEAN_ELEMENT_THEORY = SGP/SGP4

EPOCH          = 2025-12-20T21:35:09.282336
MEAN_MOTION    = 15.18815746
ECCENTRICITY   = .00275833
INCLINATION    = 97.5085
RA_OF_ASC_NODE = 333.5635
ARG_OF_PERICENTER = 145.1195
MEAN_ANOMALY   = 215.1854

EPHEMERIS_TYPE = 0
CLASSIFICATION_TYPE = U
NORAD_CAT_ID   = 19046
ELEMENT_SET_NO = 999
REV_AT_EPOCH   = 4014
BSTAR          = .18037796E-3
MEAN_MOTION_DOT = .3721E-4
MEAN_MOTION_DDOT = 0

CCSDS_OMM_VERS = 2.0
CREATION_DATE  = 
ORIGINATOR     = 

OBJECT_NAME    = SL-16 R/B
OBJECT_ID      = 1988-039B
CENTER_NAME    = EARTH
REF_FRAME      = TEME
TIME_SYSTEM    = UTC
MEAN_ELEMENT_THEORY = SGP/SGP4

EPOCH          = 2025-12-20T18:42:58.905216
MEAN_MOTION    = 14.19598250
ECCENTRICITY   = .00195804
INCLINATION    = 71.0134
RA_OF_ASC_NODE = 235.3986
ARG_OF_PERICENTER = 102.5102
MEAN_ANOMALY   = 257.8215

EPHEMERIS_TYPE = 0
CLASSIFICATION_TYPE = U
NORAD_CAT_ID   = 19120
ELEMENT_SET_NO = 999
REV_AT_EPOCH   = 94718
BSTAR          = .10751418E-3
MEAN_MOTION_DOT = .179E-5
MEAN_MOTION_DDOT = 0

CCSDS_OMM_VERS = 2.0
CREATION_DATE  = 
ORIGINATOR     = 

OBJECT_NAME    = COSMOS 1953
OBJECT_ID      = 1988-050A
CENTER_NAME    = EARTH
REF_FRAME      = TEME
TIME_SYSTEM    = UTC
MEAN_ELEMENT_THEORY = SGP/SGP4

EPOCH          = 2025-12-17T18:00:23.829120
MEAN_MOTION    = 15.26995692
ECCENTRICITY   = .00135407
INCLINATION    = 82.5093
RA_OF_ASC_NODE = 240.5536
ARG_OF_PERICENTER = 56.0210
MEAN_ANOMALY   = 304.2313

EPHEMERIS_TYPE = 0
CLASSIFICATION_TYPE = U
NORAD_CAT_ID   = 19210
ELEMENT_SET_NO = 999
REV_AT_EPOCH   = 2527
BSTAR          = .17925093E-3
MEAN_MOTION_DOT = .4793E-4
MEAN_MOTION_DDOT = 0

CCSDS_OMM_VERS = 2.0
CREATION_DATE  = 
ORIGINATOR     = 

OBJECT_NAME    = SL-8 R/B
OBJECT_ID      = 1988-053B
CENTER_NAME    = EARTH
REF_FRAME      = TEME
TIME_SYSTEM    = UTC
MEAN_ELEMENT_THEORY = SGP/SGP4

EPOCH          = 2025-12-20T19:33:45.115200
MEAN_MOTION    = 14.38863601
ECCENTRICITY   = .00189631
INCLINATION    = 74.0472
RA_OF_ASC_NODE = 257.8369
ARG_OF_PERICENTER = 98.8872
MEAN_ANOMALY   = 328.1669

EPHEMERIS_TYPE = 0
CLASSIFICATION_TYPE = U
NORAD_CAT_ID   = 19257
ELEMENT_SET_NO = 999
REV_AT_EPOCH   = 96525
BSTAR          = .64880725E-4
MEAN_MOTION_DOT = .174E-5
MEAN_MOTION_DDOT = 0

CCSDS_OMM_VERS = 2.0
CREATION_DATE  = 
ORIGINATOR     = 

OBJECT_NAME    = COSMOS 1975
OBJECT_ID      = 1988-093A
CENTER_NAME    = EARTH
REF_FRAME      = TEME
TIME_SYSTEM    = UTC
MEAN_ELEMENT_THEORY = SGP/SGP4

EPOCH          = 2025-12-20T20:14:42.961056
MEAN_MOTION    = 15.26575927
ECCENTRICITY   = .00130717
INCLINATION    = 82.5190
RA_OF_ASC_NODE = 196.7152
ARG_OF_PERICENTER = 87.1430
MEAN_ANOMALY   = 273.1304

EPHEMERIS_TYPE = 0
CLASSIFICATION_TYPE = U
NORAD_CAT_ID   = 19573
ELEMENT_SET_NO = 999
REV_AT_EPOCH   = 737
BSTAR          = .18267317E-3
MEAN_MOTION_DOT = .4822E-4
MEAN_MOTION_DDOT = 0

CCSDS_OMM_VERS = 2.0
CREATION_DATE  = 
ORIGINATOR     = 

OBJECT_NAME    = SL-14 R/B
OBJECT_ID      = 1988-093B
CENTER_NAME    = EARTH
REF_FRAME      = TEME
TIME_SYSTEM    = UTC
MEAN_ELEMENT_THEORY = SGP/SGP4

EPOCH          = 2025-12-20T20:51:00.957312
MEAN_MOTION    = 14.85557050
ECCENTRICITY   = .00194091
INCLINATION    = 82.5314
RA_OF_ASC_NODE = 116.0390
ARG_OF_PERICENTER = 301.1069
MEAN_ANOMALY   = 177.9788

EPHEMERIS_TYPE = 0
CLASSIFICATION_TYPE = U
NORAD_CAT_ID   = 19574
ELEMENT_SET_NO = 999
REV_AT_EPOCH   = 98933
BSTAR          = .41589577E-4
MEAN_MOTION_DOT = .385E-5
MEAN_MOTION_DDOT = 0

CCSDS_OMM_VERS = 2.0
CREATION_DATE  = 
ORIGINATOR     = 

OBJECT_NAME    = SL-16 R/B
OBJECT_ID      = 1988-102B
CENTER_NAME    = EARTH
REF_FRAME      = TEME
TIME_SYSTEM    = UTC
MEAN_ELEMENT_THEORY = SGP/SGP4

EPOCH          = 2025-12-20T20:44:18.440448
MEAN_MOTION    = 14.16139878
ECCENTRICITY   = .00126054
INCLINATION    = 71.0003
RA_OF_ASC_NODE = 317.3483
ARG_OF_PERICENTER = 137.9379
MEAN_ANOMALY   = 222.2714

EPHEMERIS_TYPE = 0
CLASSIFICATION_TYPE = U
NORAD_CAT_ID   = 19650
ELEMENT_SET_NO = 999
REV_AT_EPOCH   = 91573
BSTAR          = .15489631E-3
MEAN_MOTION_DOT = .259E-5
MEAN_MOTION_DDOT = 0

CCSDS_OMM_VERS = 2.0
CREATION_DATE  = 
ORIGINATOR     = 

OBJECT_NAME    = INTERCOSMOS 24
OBJECT_ID      = 1989-080A
CENTER_NAME    = EARTH
REF_FRAME      = TEME
TIME_SYSTEM    = UTC
MEAN_ELEMENT_THEORY = SGP/SGP4

EPOCH          = 2025-12-20T16:31:56.765280
MEAN_MOTION    = 12.59452183
ECCENTRICITY   = .11889776
INCLINATION    = 82.6051
RA_OF_ASC_NODE = 155.7847
ARG_OF_PERICENTER = 116.0879
MEAN_ANOMALY   = 256.7403

EPHEMERIS_TYPE = 0
CLASSIFICATION_TYPE = U
NORAD_CAT_ID   = 20261
ELEMENT_SET_NO = 999
REV_AT_EPOCH   = 65685
BSTAR          = .14428345E-3
MEAN_MOTION_DOT = .521E-5
MEAN_MOTION_DDOT = 0

CCSDS_OMM_VERS = 2.0
CREATION_DATE  = 
ORIGINATOR     = 

OBJECT_NAME    = SL-14 R/B
OBJECT_ID      = 1989-080C
CENTER_NAME    = EARTH
REF_FRAME      = TEME
TIME_SYSTEM    = UTC
MEAN_ELEMENT_THEORY = SGP/SGP4

EPOCH          = 2025-12-20T17:52:33.669696
MEAN_MOTION    = 12.50419482
ECCENTRICITY   = .1230525
INCLINATION    = 82.5920
RA_OF_ASC_NODE = 223.8821
ARG_OF_PERICENTER = 5.2964
MEAN_ANOMALY   = 355.9843

EPHEMERIS_TYPE = 0
CLASSIFICATION_TYPE = U
NORAD_CAT_ID   = 20262
ELEMENT_SET_NO = 999
REV_AT_EPOCH   = 65028
BSTAR          = .78144735E-4
MEAN_MOTION_DOT = .274E-5
MEAN_MOTION_DDOT = 0

CCSDS_OMM_VERS = 2.0
CREATION_DATE  = 
ORIGINATOR     = 

OBJECT_NAME    = DELTA 1 R/B
OBJECT_ID      = 1989-089B
CENTER_NAME    = EARTH
REF_FRAME      = TEME
TIME_SYSTEM    = UTC
MEAN_ELEMENT_THEORY = SGP/SGP4

EPOCH          = 2025-12-20T20:21:32.915232
MEAN_MOTION    = 14.50577971
ECCENTRICITY   = .00694953
INCLINATION    = 97.0746
RA_OF_ASC_NODE = 209.8005
ARG_OF_PERICENTER = 12.9556
MEAN_ANOMALY   = 347.3407

EPHEMERIS_TYPE = 0
CLASSIFICATION_TYPE = U
NORAD_CAT_ID   = 20323
ELEMENT_SET_NO = 999
REV_AT_EPOCH   = 88430
BSTAR          = .63559447E-4
MEAN_MOTION_DOT = .221E-5
MEAN_MOTION_DDOT = 0

CCSDS_OMM_VERS = 2.0
CREATION_DATE  = 
ORIGINATOR     = 

OBJECT_NAME    = ARIANE 40 R/B
OBJECT_ID      = 1990-005H
CENTER_NAME    = EARTH
REF_FRAME      = TEME
TIME_SYSTEM    = UTC
MEAN_ELEMENT_THEORY = SGP/SGP4

EPOCH          = 2025-12-20T20:52:53.452704
MEAN_MOTION    = 14.39804092
ECCENTRICITY   = .001128
INCLINATION    = 98.3233
RA_OF_ASC_NODE = 52.8180
ARG_OF_PERICENTER = 83.8487
MEAN_ANOMALY   = 276.3986

EPHEMERIS_TYPE = 0
CLASSIFICATION_TYPE = U
NORAD_CAT_ID   = 20443
ELEMENT_SET_NO = 999
REV_AT_EPOCH   = 88146
BSTAR          = .79909038E-4
MEAN_MOTION_DOT = .208E-5
MEAN_MOTION_DDOT = 0

