COSMOS 1933             
1 18958U 88020A   25354.93135876  .00003167  00000+0  15797-3 0  9998
2 18958  82.5136 328.7840 0006221 106.4671 253.7246 15.17171989 38285
SL-3 R/B                
1 19046U 88032B   25354.89941299  .00003721  00000+0  18038-3 0  9996
2 19046  97.5085 333.5635 0027583 145.1195 215.1854 15.18815746 40146
SL-16 R/B               
1 19120U 88039B   25354.77984844  .00000179  00000+0  10751-3 0  9994
2 19120  71.0134 235.3986 0019580 102.5102 257.8215 14.19598250947184
COSMOS 1953             
1 19210U 88050A   25351.75027580  .00004793  00000+0  17925-3 0  9993
2 19210  82.5093 240.5536 0013540  56.0210 304.2313 15.26995692 25270
SL-8 R/B                
1 19257U 88053B   25354.81510550  .00000174  00000+0  64881-4 0  9994
2 19257  74.0472 257.8369 0018963  98.8872 328.1669 14.38863601965251
COSMOS 1975             
1 19573U 88093A   25354.84355279  .00004822  00000+0  18267-3 0  9997
2 19573  82.5190 196.7152 0013071  87.1430 273.1304 15.26575927  7374
SL-14 R/B               
1 19574U 88093B   25354.86876108  .00000385  00000+0  41590-4 0  9995
2 19574  82.5314 116.0390 0019409 301.1069 177.9788 14.85557050989333
SL-16 R/B               
1 19650U 88102B   25354.86410232  .00000259  00000+0  15490-3 0  9992
2 19650  71.0003 317.3483 0012605 137.9379 222.2714 14.16139878915739
INTERCOSMOS 24          
1 20261U 89080A   25354.68885145  .00000521  00000+0  14428-3 0  9999
2 20261  82.6051 155.7847 1188977 116.0879 256.7403 12.59452183656852
SL-14 R/B               
1 20262U 89080C   25354.74483414  .00000274  00000+0  78145-4 0  9992
2 20262  82.5920 223.8821 1230525   5.2964 355.9843 12.50419482650284
DELTA 1 R/B             
1 20323U 89089B   25354.84829763  .00000221  00000+0  63559-4 0  9996
2 20323  97.0746 209.8005 0069495  12.9556 347.3407 14.50577971884307
ARIANE 40 R/B           
1 20443U 90005H   25354.87006311  .00000208  00000+0  79909-4 0  9999
2 20443  98.3233  52.8180 0011280  83.8487 276.3986 14.39804092881465
